     2              NAVIGATION DATA                         RINEX VERSION / TYPE
CCRINEXN V1.6.0 UX  CDDIS               31-OCT-00 23:49     PGM / RUN BY / DATE 
IGS BROADCAST EPHEMERIS FILE                                COMMENT             
    0.4005D-07  0.1490D-07 -0.1192D-06  0.5961D-07          ION ALPHA           
    0.1516D+06 -0.4915D+05 -0.1311D+06 -0.1966D+06          ION BETA            
    0.558793544769D-08 0.000000000000D+00    61440     1243 DELTA-UTC: A0,A1,T,W
    13                                                      LEAP SECONDS        
                                                            END OF HEADER       
 4 03 10 31 19 59 44.0-0.321818515658D-05-0.488853402203D-11 0.000000000000D+00
    0.136000000000D+03 0.541875000000D+02 0.441411243693D-08-0.205244552807D+01
    0.280328094959D-05 0.645319663454D-02 0.836327672005D-05 0.515372060585D+04
    0.503984000000D+06-0.651925802231D-07-0.160359952029D+01-0.335276126862D-07
    0.962577634514D+00 0.221843750000D+03-0.157640342262D+00-0.796783189218D-08
   -0.232509684962D-09 0.000000000000D+00 0.124200000000D+04 0.000000000000D+00
    0.200000000000D+01 0.000000000000D+00-0.605359673500D-08 0.136000000000D+03
    0.496800000000D+06 0.400000000000D+01 0.000000000000D+00 0.000000000000D+00
11 03 10 31 19 59 44.0 0.749235041440D-04 0.216004991671D-11 0.000000000000D+00
    0.650000000000D+02 0.548750000000D+02 0.558666127830D-08-0.357848323693D+00
    0.274740159512D-05 0.224197574426D-02 0.836513936520D-05 0.515370046234D+04
    0.503984000000D+06 0.409781932831D-07-0.172023134880D+01-0.465661287308D-07
    0.909832553263D+00 0.193000000000D+03-0.155573089798D+00-0.853964142463D-08
   -0.446090010011D-09 0.100000000000D+01 0.124200000000D+04 0.000000000000D+00
    0.000000000000D+00 0.000000000000D+00-0.116415321827D-07 0.650000000000D+02
    0.503250000000D+06 0.000000000000D+00 0.000000000000D+00 0.000000000000D+00
23 03 10 31 19 59 44.0 0.399155542254D-04 0.909494701773D-12 0.000000000000D+00
    0.720000000000D+02 0.437812500000D+02 0.393409244217D-08 0.157416790531D+01
    0.193342566490D-05 0.164797094185D-01 0.433437526226D-05 0.515386330223D+04
    0.503984000000D+06 0.372529029846D-08-0.518818988722D+00-0.456348061562D-06
    0.984652304687D+00 0.308375000000D+03-0.164455958658D+01-0.799997608826D-08
    0.113219001740D-09 0.100000000000D+01 0.124200000000D+04 0.000000000000D+00
    0.000000000000D+00 0.000000000000D+00-0.279396772385D-08 0.720000000000D+02
    0.503670000000D+06 0.000000000000D+00 0.000000000000D+00 0.000000000000D+00
29 03 10 31 19 59 44.0 0.147525686771D-03 0.126192389871D-10 0.000000000000D+00
    0.700000000000D+02-0.587812500000D+02 0.408481300600D-08 0.273751591671D+01
   -0.309199094772D-05 0.801494717598D-02 0.433810055256D-05 0.515368659973D+04
    0.503984000000D+06 0.130385160446D-06 0.443402120952D+00-0.838190317154D-07
    0.976118262352D+00 0.301843750000D+03-0.154486684847D+01-0.790532928870D-08
    0.303584074067D-10 0.100000000000D+01 0.124200000000D+04 0.000000000000D+00
    0.200000000000D+01 0.000000000000D+00-0.698491930962D-08 0.700000000000D+02
    0.503088000000D+06 0.400000000000D+01 0.000000000000D+00 0.000000000000D+00
 1 03 10 31 20  0  0.0 0.312867108733D-03 0.216004991671D-11 0.000000000000D+00
    0.123000000000D+03-0.632500000000D+02 0.417338812408D-08-0.113837277258D+01
   -0.317953526974D-05 0.524085841607D-02 0.395812094212D-05 0.515364700317D+04
    0.504000000000D+06-0.409781932831D-07 0.490269693289D+00 0.165775418282D-06
    0.976505846405D+00 0.311406250000D+03-0.172963370616D+01-0.816534011919D-08
    0.560737642688D-10 0.100000000000D+01 0.124200000000D+04 0.000000000000D+00
    0.280000000000D+01 0.000000000000D+00-0.325962901115D-08 0.123000000000D+03
    0.496818000000D+06 0.400000000000D+01 0.000000000000D+00 0.000000000000D+00
 2 03 10 31 20  0  0.0-0.213333405554D-03-0.670752342558D-11 0.000000000000D+00
    0.730000000000D+02-0.334375000000D+01 0.524628995761D-08-0.227966523707D+01
   -0.298023223877D-07 0.230907715159D-01 0.811368227005D-05 0.515375407410D+04
    0.504000000000D+06 0.329688191414D-06 0.246671804032D+01 0.106170773506D-06
    0.932352077806D+00 0.200281250000D+03-0.174938406868D+01-0.784889836669D-08
    0.459304846176D-09 0.100000000000D+01 0.124200000000D+04 0.000000000000D+00
    0.400000000000D+01 0.000000000000D+00-0.186264514923D-08 0.585000000000D+03
    0.496818000000D+06 0.400000000000D+01 0.000000000000D+00 0.000000000000D+00
 5 03 10 31 20  0  0.0 0.309292227030D-05 0.147792889038D-11 0.000000000000D+00
    0.162000000000D+03 0.137500000000D+01 0.529343477852D-08-0.242303394011D+01
    0.260770320892D-07 0.494014460128D-02 0.840798020363D-05 0.515361985207D+04
    0.504000000000D+06 0.614672899246D-07 0.249092026736D+01-0.670552253723D-07
    0.935772631898D+00 0.203468750000D+03 0.781449353976D+00-0.823462871963D-08
    0.326085011321D-09 0.000000000000D+00 0.124200000000D+04 0.000000000000D+00
    0.280000000000D+01 0.000000000000D+00-0.419095158577D-08 0.162000000000D+03
    0.496800000000D+06 0.400000000000D+01 0.000000000000D+00 0.000000000000D+00
 6 03 10 31 20  0  0.0-0.995583832264D-06-0.341060513165D-12 0.000000000000D+00
    0.150000000000D+02 0.281250000000D+02 0.521235997286D-08-0.125134945932D+01
    0.150874257088D-05 0.647612498142D-02 0.719539821148D-05 0.515363839912D+04
    0.504000000000D+06 0.856816768646D-07-0.269307054026D+01 0.169500708580D-06
    0.937199121854D+00 0.226156250000D+03-0.204044942573D+01-0.826070123422D-08
   -0.291440711104D-09 0.000000000000D+00 0.124200000000D+04 0.000000000000D+00
    0.200000000000D+01 0.000000000000D+00-0.512227416039D-08 0.271000000000D+03
    0.503430000000D+06 0.400000000000D+01 0.000000000000D+00 0.000000000000D+00
 7 03 10 31 20  0  0.0 0.641251914203D-03 0.238742359215D-11 0.000000000000D+00
    0.280000000000D+02 0.205937500000D+02 0.538558147394D-08 0.915535635528D+00
    0.105984508991D-05 0.127004572423D-01 0.722147524357D-05 0.515367256927D+04
    0.504000000000D+06-0.208616256714D-06-0.272140670169D+01 0.316649675369D-07
    0.938883537434D+00 0.232750000000D+03-0.185909870119D+01-0.858214319500D-08
   -0.303941231801D-09 0.000000000000D+00 0.124200000000D+04 0.000000000000D+00
    0.280000000000D+01 0.000000000000D+00-0.186264514923D-08 0.284000000000D+03
    0.496800000000D+06 0.400000000000D+01 0.000000000000D+00 0.000000000000D+00
 8 03 10 31 20  0  0.0 0.401336699724D-03 0.000000000000D+00 0.000000000000D+00
    0.128000000000D+03-0.755625000000D+02 0.443804200512D-08-0.105622690590D+01
   -0.417418777943D-05 0.902322109323D-02 0.882521271706D-05 0.515369827270D+04
    0.504000000000D+06-0.109896063805D-06 0.154728973193D+01-0.335276126862D-07
    0.962785854570D+00 0.215968750000D+03 0.233456958102D+01-0.797497504686D-08
    0.326085011321D-09 0.100000000000D+01 0.124200000000D+04 0.000000000000D+00
    0.200000000000D+01 0.000000000000D+00-0.419095158577D-08 0.128000000000D+03
    0.496818000000D+06 0.400000000000D+01 0.000000000000D+00 0.000000000000D+00
 9 03 10 31 20  0  0.0-0.144592486322D-04-0.181898940355D-11 0.000000000000D+00
    0.940000000000D+02-0.627187500000D+02 0.477091301339D-08-0.142156030992D+01
   -0.316277146339D-05 0.150517362636D-01 0.838562846184D-05 0.515361158562D+04
    0.504000000000D+06 0.376254320145D-06 0.148165839633D+01 0.113621354103D-06
    0.949508461284D+00 0.207250000000D+03 0.998928925148D+00-0.802390565645D-08
    0.223937899341D-09 0.000000000000D+00 0.124200000000D+04 0.000000000000D+00
    0.280000000000D+01 0.000000000000D+00-0.558793544769D-08 0.862000000000D+03
    0.496800000000D+06 0.400000000000D+01 0.000000000000D+00 0.000000000000D+00
10 03 10 31 20  0  0.0 0.336179509759D-04 0.568434188608D-12 0.000000000000D+00
    0.162000000000D+03 0.403437500000D+02 0.396516516505D-08 0.204398549476D+01
    0.214762985706D-05 0.558797805570D-02 0.491179525852D-05 0.515360197639D+04
    0.504000000000D+06-0.726431608200D-07-0.569760796687D+00 0.726431608200D-07
    0.980984937297D+00 0.297937500000D+03 0.231743174588D+00-0.796461747257D-08
    0.964325882329D-11 0.100000000000D+01 0.124200000000D+04 0.000000000000D+00
    0.280000000000D+01 0.000000000000D+00-0.232830643654D-08 0.418000000000D+03
    0.497508000000D+06 0.400000000000D+01 0.000000000000D+00 0.000000000000D+00
11 03 10 31 20  0  0.0 0.749267637730D-04 0.216004991671D-11 0.000000000000D+00
    0.400000000000D+02 0.548750000000D+02 0.558666127830D-08-0.355512697445D+00
    0.274740159512D-05 0.224198331125D-02 0.836513936520D-05 0.515370046043D+04
    0.504000000000D+06 0.409781932831D-07-0.172023142195D+01-0.465661287308D-07
    0.909832519616D+00 0.193000000000D+03-0.155575057423D+00-0.853964142463D-08
   -0.446090010011D-09 0.100000000000D+01 0.124200000000D+04 0.000000000000D+00
    0.100000000000D+01 0.000000000000D+00-0.116415321827D-07 0.552000000000D+03
    0.496800000000D+06 0.000000000000D+00 0.000000000000D+00 0.000000000000D+00
13 03 10 31 20  0  0.0-0.317585654557D-04-0.113686837722D-12 0.000000000000D+00
    0.201000000000D+03-0.612500000000D+02 0.402552482212D-08 0.223827654749D+01
   -0.320561230183D-05 0.196368014440D-02 0.394880771637D-05 0.515377513313D+04
    0.504000000000D+06 0.242143869400D-07 0.472176699918D+00 0.391155481339D-07
    0.980731106381D+00 0.312937500000D+03 0.722934898329D+00-0.801961976364D-08
    0.478591363823D-10 0.100000000000D+01 0.124200000000D+04 0.000000000000D+00
    0.280000000000D+01 0.000000000000D+00-0.111758708954D-07 0.457000000000D+03
    0.496818000000D+06 0.400000000000D+01 0.000000000000D+00 0.000000000000D+00
